COSMOS 2425 (716)       
1 29670U 06062A   21098.11264815 -.00000001  00000-0  00000-0 0  9998
2 29670  64.8647 257.8229 0024363 348.6658 195.9240  2.13113665111173
COSMOS 2433 (720)       
1 32275U 07052A   21100.34790231 -.00000092  00000-0  00000-0 0  9998
2 32275  66.0519  19.0452 0003293 282.6948 353.6741  2.13104110104732
COSMOS 2432 (719)       
1 32276U 07052B   21100.41871120 -.00000092  00000-0  00000-0 0  9994
2 32276  66.0635  19.1372 0011858 330.9119 309.2290  2.13103563104734
COSMOS 2434 (721)       
1 32393U 07065A   21100.59878916 -.00000020  00000-0  00000-0 0  9998
2 32393  64.4820 256.2293 0004918  82.7019 274.3448  2.13103093103440
COSMOS 2436 (723)       
1 32395U 07065C   21100.43533634 -.00000019  00000-0  00000-0 0  9996
2 32395  64.4941 256.2878 0015567   7.5731   0.1974  2.13102961103388
COSMOS 2456 (730)       
1 36111U 09070A   21100.61544582  .00000072  00000-0  00000-0 0  9996
2 36111  64.2645 135.9087 0005583 304.7774 236.4804  2.13099181 88116
COSMOS 2457 (733)       
1 36112U 09070B   21100.35487383  .00000073  00000-0  00000-0 0  9994
2 36112  64.2470 135.8047 0004738 189.7432 275.4570  2.13101428 88112
COSMOS 2459 (731)       
1 36400U 10007A   21100.08536422 -.00000093  00000-0  00000-0 0  9998
2 36400  65.9489  17.9890 0026868 348.1695 303.2247  2.13105710 86449
COSMOS 2461 (735)       
1 36401U 10007B   21100.39653347 -.00000092  00000-0  00000-0 0  9998
2 36401  65.9458  17.9430 0021720   4.9200 166.7772  2.13103835 86460
COSMOS 2460 (732)       
1 36402U 10007C   21100.42969730 -.00000092  00000-0  00000-0 0  9999
2 36402  65.9326  17.8991 0001889 341.5476 159.7234  2.13106604 86467
COSMOS 2464 (736)       
1 37139U 10041C   21100.34682428 -.00000021  00000-0  00000-0 0  9994
2 37139  64.0825 255.5285 0028589  14.4134  10.7564  2.13100702 82527
COSMOS 2471 (701K)      
1 37372U 11009A   21100.41901677 -.00000092  00000-0  00000-0 0  9994
2 37372  65.9288  17.8383 0013436 230.3026  62.9307  2.13081218 78733
COSMOS 2476 (744)       
1 37867U 11064A   21100.51476088  .00000073  00000-0  00000-0 0  9996
2 37867  64.5598 137.0983 0021843 240.4572 125.3396  2.13101897 73464
COSMOS 2477 (745)       
1 37868U 11064B   21100.44460424  .00000073  00000-0  00000-0 0  9996
2 37868  64.5672 137.1626 0019371 242.2588 248.0649  2.13101699 73412
COSMOS 2475 (743)       
1 37869U 11064C   21100.28899490  .00000073  00000-0  00000-0 0  9998
2 37869  64.5753 137.1720 0023540 260.2172  68.3530  2.13101869 73411
COSMOS 2485 (747)       
1 39155U 13019A   21100.44249012  .00000073  00000-0  00000-0 0  9997
2 39155  64.7262 137.4357 0022218 236.4167 118.4147  2.13101869 61921
COSMOS 2492 (754)       
1 39620U 14012A   21100.51656249 -.00000092  00000-0  00000-0 0  9992
2 39620  65.8197  17.6384 0014952 326.9372 119.5973  2.13103174 54882
COSMOS 2500 (755)       
1 40001U 14032A   21099.86952337 -.00000094  00000-0  00000-0 0  9993
2 40001  65.7616  17.5548 0004909 218.5154 311.4390  2.13102547 53088
COSMOS 2501 (702K)      
1 40315U 14075A   21100.37231697 -.00000021  00000-0  00000+0 0  9995
2 40315  63.7922 256.3603 0016015 206.3632 155.4009  2.13101352 49504
COSMOS 2514 (751)       
1 41330U 16008A   21100.52161170 -.00000092  00000-0  00000-0 0  9995
2 41330  65.5627  17.3304 0008825 223.9253 269.2988  2.13102952 40262
COSMOS 2516 (753)       
1 41554U 16032A   21100.51363424 -.00000020  00000-0  00000-0 0  9996
2 41554  64.0179 256.5107 0011702 211.8591 168.9871  2.13106814 37873
COSMOS 2522 (752)       
1 42939U 17055A   21100.24540586 -.00000019  00000-0  00000-0 0  9994
2 42939  64.2528 256.7867 0005268 244.2001 155.2176  2.13101884 27623
COSMOS 2527 (756)       
1 43508U 18053A   21100.54948086  .00000073  00000-0  00000-0 0  9995
2 43508  64.8905 137.3420 0009064 239.9488  64.7869  2.13102588 21919
COSMOS 2529 (757)       
1 43687U 18086A   21100.07785618 -.00000018  00000-0  00000-0 0  9997
2 43687  64.4648 256.9922 0007632 275.6053 310.8252  2.13102048 18925
COSMOS 2534 (758)       
1 44299U 19030A   21100.28655161 -.00000019  00000-0  00000-0 0  9990
2 44299  64.5366 256.8304 0011062 297.0876 224.3141  2.13101989 14575
COSMOS 2544 (759)       
1 44850U 19088A   21100.48223404  .00000073  00000-0  00000-0 0  9998
2 44850  64.8749 137.2053 0013504 264.7645  32.2019  2.13102395 10351
COSMOS 2545 (760)       
1 45358U 20018A   21100.44501558 -.00000093  00000-0  00000-0 0  9995
2 45358  64.8943  18.2976 0009047 262.8949 215.6227  2.13102804  8301
